NORAD_CAT_ID,OBJECT_NAME,OBJECT_TYPE,EPOCH,MEAN_MOTION,ECCENTRICITY,INCLINATION,RA_OF_ASC_NODE,ARG_OF_PERICENTER,MEAN_ANOMALY,BSTAR,MEAN_MOTION_DOT,MEAN_MOTION_DDOT,TLE_LINE0,TLE_LINE1,TLE_LINE2,SEMIMAJOR_AXIS,PERIOD,APOGEE,PERIGEE,DECAYED
55675.0,STARLINK-5232,PAYLOAD,2024-02-20 19:21:43,14.98331948,0.0002878,69.9977,249.9434,268.9846,91.0984,3.1533e-05,2.83e-06,0.0,0 STARLINK-5232,1 55675U 23021AZ  24051.80675265  .00000283  00000-0  31533-4 0  9999,2 55675  69.9977 249.9434 0002878 268.9846  91.0984 14.98331948 56967,6950.187,96.107,574.052,570.052,0.0
55675.0,STARLINK-5232,PAYLOAD,2024-02-20 22:33:59,14.98331716,0.0002881,69.9977,249.6067,268.9754,91.1075,2.7632e-05,2.37e-06,0.0,0 STARLINK-5232,1 55675U 23021AZ  24051.94027267  .00000237  00000-0  27632-4 0  9991,2 55675  69.9977 249.6067 0002881 268.9754  91.1075 14.98331716 57289,6950.188,96.107,574.055,570.05,0.0
55675.0,STARLINK-5232,PAYLOAD,2024-02-21 06:34:39,14.9833065,0.0002881,69.9978,248.765,269.1349,90.948,1.3674e-05,7e-07,0.0,0 STARLINK-5232,1 55675U 23021AZ  24052.27407338  .00000070  00000-0  13674-4 0  9995,2 55675  69.9978 248.7650 0002881 269.1349  90.9480 14.98330650 57330,6950.191,96.107,574.058,570.054,0.0
55675.0,STARLINK-5232,PAYLOAD,2024-02-21 19:23:44,14.98329235,0.0002909,69.998,247.4186,269.5203,90.5622,2.407e-05,1.94e-06,0.0,0 STARLINK-5232,1 55675U 23021AZ  24052.80815374  .00000194  00000-0  24070-4 0  9996,2 55675  69.9980 247.4186 0002909 269.5203  90.5622 14.98329235 57114,6950.195,96.107,574.082,570.038,0.0
55675.0,STARLINK-5232,PAYLOAD,2024-02-21 22:36:00,14.98329456,0.0002917,69.9981,247.082,269.5754,90.507,2.4534e-05,2e-06,0.0,0 STARLINK-5232,1 55675U 23021AZ  24052.94167357  .00000200  00000-0  24534-4 0  9995,2 55675  69.9981 247.0820 0002917 269.5754  90.5070 14.98329456 57433,6950.195,96.107,574.087,570.032,0.0
55675.0,STARLINK-5232,PAYLOAD,2024-02-22 14:37:21,14.98331076,0.000291,69.9982,245.3986,269.5429,90.5396,-9.776e-06,-2.1e-06,0.0,0 STARLINK-5232,1 55675U 23021AZ  24053.60927330 -.00000210  00000-0 -97760-5 0  9999,2 55675  69.9982 245.3986 0002910 269.5429  90.5396 14.98331076 57533,6950.19,96.107,574.077,570.032,0.0
55675.0,STARLINK-5232,PAYLOAD,2024-02-22 19:25:45,14.98330967,0.0002922,69.9983,244.8937,269.6734,90.409,-9.7676e-06,-2.1e-06,0.0,0 STARLINK-5232,1 55675U 23021AZ  24053.80955320 -.00000210  00000-0 -97676-5 0  9997,2 55675  69.9983 244.8937 0002922 269.6734  90.4090 14.98330967 57265,6950.19,96.107,574.086,570.024,0.0
55675.0,STARLINK-5232,PAYLOAD,2024-02-22 22:38:01,14.9833086,0.0002923,69.9983,244.557,269.7491,90.3334,-1.0565e-05,-2.19e-06,0.0,0 STARLINK-5232,1 55675U 23021AZ  24053.94307314 -.00000219  00000-0 -10565-4 0  9996,2 55675  69.9983 244.5570 0002923 269.7491  90.3334 14.98330860 57584,6950.19,96.107,574.087,570.024,0.0
55675.0,STARLINK-5232,PAYLOAD,2024-02-23 14:39:22,14.98329617,0.0002935,69.9985,242.8738,269.7572,90.325,1.662e-05,1.05e-06,0.0,0 STARLINK-5232,1 55675U 23021AZ  24054.61067315  .00000105  00000-0  16620-4 0  9995,2 55675  69.9985 242.8738 0002935 269.7572  90.3250 14.98329617 57682,6950.194,96.107,574.099,570.019,0.0
55675.0,STARLINK-5232,PAYLOAD,2024-02-23 19:27:46,14.98329622,0.0002923,69.9987,242.3687,269.7924,90.29,1.2257e-05,5.3e-07,0.0,0 STARLINK-5232,1 55675U 23021AZ  24054.81095327  .00000053  00000-0  12257-4 0  9995,2 55675  69.9987 242.3687 0002923 269.7924  90.2900 14.98329622 57418,6950.194,96.107,574.091,570.028,0.0
55675.0,STARLINK-5232,PAYLOAD,2024-02-23 22:40:02,14.98329584,0.0002927,69.9988,242.0322,269.8407,90.2417,1.0443e-05,3.2e-07,0.0,0 STARLINK-5232,1 55675U 23021AZ  24054.94447337  .00000032  00000-0  10443-4 0  9993,2 55675  69.9988 242.0322 0002927 269.8407  90.2417 14.98329584 57738,6950.194,96.107,574.093,570.025,0.0
55675.0,STARLINK-5232,PAYLOAD,2024-02-24 14:41:22,14.98332936,0.0002962,69.9987,240.3486,270.7291,89.3528,4.9596e-05,4.99e-06,0.0,0 STARLINK-5232,1 55675U 23021AZ  24055.61206983  .00000499  00000-0  49596-4 0  9996,2 55675  69.9987 240.3486 0002962 270.7291  89.3528 14.98332936 57838,6950.184,96.107,574.107,569.99,0.0
55675.0,STARLINK-5232,PAYLOAD,2024-02-25 05:06:35,14.98330439,0.000293,69.9988,238.8335,271.4986,88.5837,2.0672e-05,1.54e-06,0.0,0 STARLINK-5232,1 55675U 23021AZ  24056.21291089  .00000154  00000-0  20672-4 0  9996,2 55675  69.9988 238.8335 0002930 271.4986  88.5837 14.98330439 57625,6950.192,96.107,574.093,570.02,0.0
55675.0,STARLINK-5232,PAYLOAD,2024-02-25 14:43:23,14.98331202,0.0002931,69.9993,237.824,270.4997,89.5826,2.7384e-05,2.34e-06,0.0,0 STARLINK-5232,1 55675U 23021AZ  24056.61346984  .00000234  00000-0  27384-4 0  9991,2 55675  69.9993 237.8240 0002931 270.4997  89.5826 14.98331202 57984,6950.189,96.107,574.091,570.017,0.0
55675.0,STARLINK-5232,PAYLOAD,2024-02-25 21:07:56,14.98330984,0.0002951,69.9994,237.1509,269.7858,90.2963,2.1941e-05,1.69e-06,0.0,0 STARLINK-5232,1 55675U 23021AZ  24056.88050986  .00000169  00000-0  21941-4 0  9994,2 55675  69.9994 237.1509 0002951 269.7858  90.2963 14.98330984 58028,6950.19,96.107,574.106,570.004,0.0
55675.0,STARLINK-5232,PAYLOAD,2024-02-26 11:33:08,14.98329843,0.0002859,69.9995,235.6356,267.9774,92.1057,-3.4878e-05,-5.09e-06,0.0,0 STARLINK-5232,1 55675U 23021AZ  24057.48135196 -.00000509  00000-0 -34878-4 0  9991,2 55675  69.9995 235.6356 0002859 267.9774  92.1057 14.98329843 57819,6950.193,96.107,574.045,570.071,0.0
55675.0,STARLINK-5232,PAYLOAD,2024-02-26 14:45:24,14.98329437,0.0002872,69.9994,235.299,267.9795,92.1036,-3.6931e-05,-5.34e-06,0.0,0 STARLINK-5232,1 55675U 23021AZ  24057.61487216 -.00000534  00000-0 -36931-4 0  9999,2 55675  69.9994 235.2990 0002872 267.9795  92.1036 14.98329437 58138,6950.195,96.107,574.056,570.064,0.0
55675.0,STARLINK-5232,PAYLOAD,2024-02-26 21:09:57,14.9832861,0.0002934,69.9993,234.6256,268.754,91.3283,-6.6916e-05,-8.91e-06,0.0,0 STARLINK-5232,1 55675U 23021AZ  24057.88191359 -.00000891  00000-0 -66916-4 0  9990,2 55675  69.9993 234.6256 0002934 268.7540  91.3283 14.98328610 58172,6950.197,96.107,574.101,570.023,0.0
55675.0,STARLINK-5232,PAYLOAD,2024-02-27 11:35:09,14.9832962,0.0002995,69.9994,233.1112,270.2633,89.8183,1.7197e-05,1.12e-06,0.0,0 STARLINK-5232,1 55675U 23021AZ  24058.48275090  .00000112  00000-0  17197-4 0  9993,2 55675  69.9994 233.1112 0002995 270.2633  89.8183 14.98329620 57965,6950.194,96.107,574.141,569.977,0.0
55675.0,STARLINK-5232,PAYLOAD,2024-02-27 14:47:25,14.98330199,0.0003018,69.9993,232.7742,269.6006,90.4807,2.9415e-05,2.58e-06,0.0,0 STARLINK-5232,1 55675U 23021AZ  24058.61626991  .00000258  00000-0  29415-4 0  9995,2 55675  69.9993 232.7742 0003018 269.6006  90.4807 14.98330199 58281,6950.192,96.107,574.155,569.96,0.0
55675.0,STARLINK-5232,PAYLOAD,2024-02-27 21:11:57,14.98332725,0.000302,69.9992,232.1004,268.6279,91.4534,3.3928e-05,3.12e-06,0.0,0 STARLINK-5232,1 55675U 23021AZ  24058.88330782  .00000312  00000-0  33928-4 0  9999,2 55675  69.9992 232.1004 0003020 268.6279  91.4534 14.98332725 58329,6950.184,96.107,574.148,569.951,0.0
55675.0,STARLINK-5232,PAYLOAD,2024-02-28 13:13:19,14.98323368,0.0003001,69.9991,230.4166,268.4379,91.6437,-4.5549e-06,-1.47e-06,0.0,0 STARLINK-5232,1 55675U 23021AZ  24059.55091529 -.00000147  00000-0 -45549-5 0  9998,2 55675  69.9991 230.4166 0003001 268.4379  91.6437 14.98323368 58121,6950.213,96.107,574.164,569.993,0.0
55675.0,STARLINK-5232,PAYLOAD,2024-02-28 14:49:27,14.9832342,0.0003005,69.9991,230.2484,268.4583,91.6232,-4.1897e-06,-1.43e-06,0.0,0 STARLINK-5232,1 55675U 23021AZ  24059.61767549 -.00000143  00000-0 -41897-5 0  9995,2 55675  69.9991 230.2484 0003005 268.4583  91.6232 14.98323420 58439,6950.213,96.107,574.167,569.99,0.0
55675.0,STARLINK-5232,PAYLOAD,2024-02-28 21:13:59,14.98325089,0.0003055,69.9992,229.5759,269.9109,90.17,9.9776e-06,2.6e-07,0.0,0 STARLINK-5232,1 55675U 23021AZ  24059.88471506  .00000026  00000-0  99776-5 0  9996,2 55675  69.9992 229.5759 0003055 269.9109  90.1700 14.98325089 58472,6950.208,96.107,574.196,569.95,0.0
55675.0,STARLINK-5232,PAYLOAD,2024-02-29 11:39:11,14.98332132,0.0003076,69.9992,228.061,270.0601,90.0206,-5.0504e-06,-1.53e-06,0.0,0 STARLINK-5232,1 55675U 23021AZ  24060.48555198 -.00000153  00000-0 -50504-5 0  9993,2 55675  69.9992 228.0610 0003076 270.0601  90.0206 14.98332132 58269,6950.186,96.107,574.189,569.913,0.0
55675.0,STARLINK-5232,PAYLOAD,2024-02-29 14:51:27,14.98332758,0.0003075,69.9993,227.7244,270.0597,90.021,2.5197e-06,-6.3e-07,0.0,0 STARLINK-5232,1 55675U 23021AZ  24060.61907113 -.00000063  00000-0  25197-5 0  9995,2 55675  69.9993 227.7244 0003075 270.0597  90.0210 14.98332758 58586,6950.184,96.107,574.187,569.912,0.0
55675.0,STARLINK-5232,PAYLOAD,2024-02-29 21:15:59,14.98334395,0.0003067,69.9995,227.0511,270.2125,89.8683,2.1533e-05,1.64e-06,0.0,0 STARLINK-5232,1 55675U 23021AZ  24060.88610913  .00000164  00000-0  21533-4 0  9993,2 55675  69.9995 227.0511 0003067 270.2125  89.8683 14.98334395 58622,6950.179,96.107,574.176,569.913,0.0
55675.0,STARLINK-5232,PAYLOAD,2024-03-01 14:53:28,14.98334329,0.0002699,70.0001,225.1998,272.2931,87.7919,0.00013842,1.559e-05,0.0,0 STARLINK-5232,1 55675U 23021AZ  24061.62046591  .00001559  00000-0  13842-3 0  9993,2 55675  70.0001 225.1998 0002699 272.2931  87.7919 14.98334329 58736,6950.18,96.107,573.92,570.169,0.0
55675.0,STARLINK-5232,PAYLOAD,2024-03-01 19:41:51,14.98345095,0.0002811,70.0001,224.6936,274.812,85.2718,0.00028021,3.253e-05,0.0,0 STARLINK-5232,1 55675U 23021AZ  24061.82073333  .00003253  00000-0  28021-3 0  9997,2 55675  70.0001 224.6936 0002811 274.8120  85.2718 14.98345095 58468,6950.146,96.106,573.965,570.058,0.0
55675.0,STARLINK-5232,PAYLOAD,2024-03-02 11:43:12,14.98335001,0.0002819,70.0,223.0114,263.3987,96.6851,-1.1123e-06,-1.06e-06,0.0,0 STARLINK-5232,1 55675U 23021AZ  24062.48834311 -.00000106  00000-0 -11123-5 0  9994,2 55675  70.0000 223.0114 0002819 263.3987  96.6851 14.98335001 58561,6950.177,96.107,574.002,570.083,0.0
